ONEWEB-0379             
1 49305U 21090AC  25059.66136419  .00000189  00000+0  47534-3 0  9993
2 49305  87.9043  23.8530 0001893  85.3336 274.8010 13.14505653165359
ONEWEB-0380             
1 49306U 21090AD  25059.63343792  .00000052  00000+0  96445-4 0  9990
2 49306  87.9181  39.0973 0001722  83.9853 276.1476 13.19723564163966
ONEWEB-0381             
1 49307U 21090AE  25059.60261651  .00000028  00000+0  37264-4 0  9998
2 49307  87.9316   8.6766 0001722  78.2878 281.8448 13.20769516167317
ONEWEB-0382             
1 49308U 21090AF  25059.81726996  .00000057  00000+0  10851-3 0  9994
2 49308  87.9316   8.6291 0001600  91.2502 268.8814 13.20770295167335
ONEWEB-0383             
1 49309U 21090AG  25059.65501528  .00000268  00000+0  68867-3 0  9993
2 49309  87.9041  23.8370 0001840  87.7495 272.3845 13.14503000165383
ONEWEB-0384             
1 49310U 21090AH  25059.58680726  .00000078  00000+0  15997-3 0  9990
2 49310  87.9317   8.6901 0001570  96.7235 263.4077 13.20773385167319
ONEWEB-0385             
1 49311U 21090AJ  25059.58211233  .00000031  00000+0  43326-4 0  9991
2 49311  87.9319   8.6918 0001836  85.2897 274.8446 13.20770418167288
ONEWEB-0386             
1 49312U 21090AK  25059.59946999  .00000087  00000+0  18251-3 0  9996
2 49312  87.9309   8.6661 0001750  90.2905 269.8429 13.20771163167300
